{
  "type": "FeatureCollection",
  "name": "electric-devices",
  "features": [
    {
      "type": "Feature",
      "id": "ems-0",
      "properties": {
        "id": "ems-0",
        "assetClass": "ems",
        "assetGroup": "electric_device",
        "x": -13.16,
        "z": -18.64,
        "subnetworkId": "island-1",
        "label": "MeshEMS Safari Park",
        "phase": "ABC",
        "terminals": [
          {
            "name": "N",
            "side": "northbound"
          },
          {
            "name": "S",
            "side": "southbound"
          }
        ],
        "globalId": "1b8fbfca-eb41-5be3-826b-eb1d380bdcab"
      },
      "geometry": {
        "type": "Point",
        "coordinates": [
          -13.16,
          -18.64
        ]
      }
    },
    {
      "type": "Feature",
      "id": "m-12",
      "properties": {
        "id": "m-12",
        "assetClass": "meter",
        "assetGroup": "electric_device",
        "x": -49.34,
        "z": -127.03,
        "subnetworkId": "f-main",
        "phase": "A",
        "label": "North campus B",
        "osmWayId": 1075692801,
        "lon": 36.8833264,
        "lat": -1.223335,
        "relayChannel": 4,
        "globalId": "a8aa3fa5-300f-51cf-877c-14482df20846"
      },
      "geometry": {
        "type": "Point",
        "coordinates": [
          -49.34,
          -127.03
        ]
      }
    },
    {
      "type": "Feature",
      "id": "m-9",
      "properties": {
        "id": "m-9",
        "assetClass": "meter",
        "assetGroup": "electric_device",
        "x": -148.17,
        "z": -21.58,
        "subnetworkId": "f-main",
        "phase": "A",
        "label": "West service block",
        "osmWayId": 1075692829,
        "lon": 36.8824386,
        "lat": -1.224289,
        "relayChannel": 1,
        "globalId": "a693db23-4f1b-565a-b4b4-8ca57a3976c4"
      },
      "geometry": {
        "type": "Point",
        "coordinates": [
          -148.17,
          -21.58
        ]
      }
    },
    {
      "type": "Feature",
      "id": "m-7",
      "properties": {
        "id": "m-7",
        "assetClass": "meter",
        "assetGroup": "electric_device",
        "x": -89.87,
        "z": -52.56,
        "subnetworkId": "f-main",
        "phase": "B",
        "label": "Northwest lodge",
        "osmWayId": 1075692830,
        "lon": 36.8829623,
        "lat": -1.2240087,
        "relayChannel": 7,
        "globalId": "7558c7f7-47b8-5f48-b29a-97728646234e"
      },
      "geometry": {
        "type": "Point",
        "coordinates": [
          -89.87,
          -52.56
        ]
      }
    },
    {
      "type": "Feature",
      "id": "m-11",
      "properties": {
        "id": "m-11",
        "assetClass": "meter",
        "assetGroup": "electric_device",
        "x": 33.37,
        "z": -108.89,
        "subnetworkId": "f-main",
        "phase": "C",
        "label": "North campus A",
        "osmWayId": 1076249805,
        "lon": 36.8840694,
        "lat": -1.2234991,
        "relayChannel": 3,
        "globalId": "4781270b-f3e8-5c48-a0a2-77c104d53316"
      },
      "geometry": {
        "type": "Point",
        "coordinates": [
          33.37,
          -108.89
        ]
      }
    },
    {
      "type": "Feature",
      "id": "m-6",
      "properties": {
        "id": "m-6",
        "assetClass": "meter",
        "assetGroup": "electric_device",
        "x": -3.73,
        "z": -44.18,
        "subnetworkId": "f-main",
        "phase": "A",
        "label": "North conference",
        "osmWayId": 1075692827,
        "lon": 36.8837361,
        "lat": -1.2240845,
        "relayChannel": 6,
        "globalId": "6a101aed-6845-5432-af8a-212a7a2c452b"
      },
      "geometry": {
        "type": "Point",
        "coordinates": [
          -3.73,
          -44.18
        ]
      }
    },
    {
      "type": "Feature",
      "id": "m-4",
      "properties": {
        "id": "m-4",
        "assetClass": "meter",
        "assetGroup": "electric_device",
        "x": -100.32,
        "z": 24.88,
        "subnetworkId": "f-main",
        "phase": "B",
        "label": "West garden block",
        "osmWayId": 1075695770,
        "lon": 36.8828684,
        "lat": -1.2247093,
        "relayChannel": 4,
        "globalId": "0074c17e-0cb7-5b1a-a54b-8b3b32ea2af9"
      },
      "geometry": {
        "type": "Point",
        "coordinates": [
          -100.32,
          24.88
        ]
      }
    },
    {
      "type": "Feature",
      "id": "m-10",
      "properties": {
        "id": "m-10",
        "assetClass": "meter",
        "assetGroup": "electric_device",
        "x": 87.49,
        "z": -77.2,
        "subnetworkId": "f-main",
        "phase": "B",
        "label": "Far north lodge",
        "osmWayId": 1076249804,
        "lon": 36.8845555,
        "lat": -1.2237858,
        "relayChannel": 2,
        "globalId": "ab72ae95-9ae1-593b-82df-9bd3b119bfff"
      },
      "geometry": {
        "type": "Point",
        "coordinates": [
          87.49,
          -77.2
        ]
      }
    },
    {
      "type": "Feature",
      "id": "m-8",
      "properties": {
        "id": "m-8",
        "assetClass": "meter",
        "assetGroup": "electric_device",
        "x": 74.83,
        "z": -28.24,
        "subnetworkId": "f-main",
        "phase": "C",
        "label": "Northeast annex",
        "osmWayId": 1076249806,
        "lon": 36.8844418,
        "lat": -1.2242287,
        "relayChannel": 0,
        "globalId": "c430f0f7-b553-5839-bd6c-6e99208af327"
      },
      "geometry": {
        "type": "Point",
        "coordinates": [
          74.83,
          -28.24
        ]
      }
    },
    {
      "type": "Feature",
      "id": "m-0",
      "properties": {
        "id": "m-0",
        "assetClass": "meter",
        "assetGroup": "electric_device",
        "x": 12.13,
        "z": 77.36,
        "subnetworkId": "f-main",
        "phase": "A",
        "label": "Main hotel wing",
        "osmWayId": 1076252097,
        "lon": 36.8838786,
        "lat": -1.225184,
        "relayChannel": 0,
        "globalId": "ee151ce1-47c4-5d64-a1ab-b8fc539936f5"
      },
      "geometry": {
        "type": "Point",
        "coordinates": [
          12.13,
          77.36
        ]
      }
    },
    {
      "type": "Feature",
      "id": "m-5",
      "properties": {
        "id": "m-5",
        "assetClass": "meter",
        "assetGroup": "electric_device",
        "x": 82.3,
        "z": 42.97,
        "subnetworkId": "f-main",
        "phase": "C",
        "label": "Northeast lodge",
        "osmWayId": 1076252100,
        "lon": 36.8845089,
        "lat": -1.2248729,
        "relayChannel": 5,
        "globalId": "b819a6ac-bf43-5df0-a073-85ea5fc32cc4"
      },
      "geometry": {
        "type": "Point",
        "coordinates": [
          82.3,
          42.97
        ]
      }
    },
    {
      "type": "Feature",
      "id": "m-1",
      "properties": {
        "id": "m-1",
        "assetClass": "meter",
        "assetGroup": "electric_device",
        "x": 29.34,
        "z": 85.72,
        "subnetworkId": "f-main",
        "phase": "B",
        "label": "East wing A",
        "osmWayId": 1076252098,
        "lon": 36.8840332,
        "lat": -1.2252597,
        "relayChannel": 1,
        "globalId": "a6bd6778-5b0c-59e6-b483-f1cff7a5583e"
      },
      "geometry": {
        "type": "Point",
        "coordinates": [
          29.34,
          85.72
        ]
      }
    },
    {
      "type": "Feature",
      "id": "m-3",
      "properties": {
        "id": "m-3",
        "assetClass": "meter",
        "assetGroup": "electric_device",
        "x": 50.69,
        "z": 87.13,
        "subnetworkId": "f-main",
        "phase": "A",
        "label": "East wing B",
        "osmWayId": 1076532873,
        "lon": 36.884225,
        "lat": -1.2252724,
        "relayChannel": 3,
        "globalId": "853027cf-6d78-594e-839a-adb5a0ca21e9"
      },
      "geometry": {
        "type": "Point",
        "coordinates": [
          50.69,
          87.13
        ]
      }
    },
    {
      "type": "Feature",
      "id": "m-2",
      "properties": {
        "id": "m-2",
        "assetClass": "meter",
        "assetGroup": "electric_device",
        "x": 21.27,
        "z": 141.62,
        "subnetworkId": "f-main",
        "phase": "C",
        "label": "Casino / pavilion cluster",
        "osmWayId": 1076252099,
        "lon": 36.8839607,
        "lat": -1.2257654,
        "relayChannel": 2,
        "globalId": "e8ba0475-a3cc-5af0-9140-9dba26648054"
      },
      "geometry": {
        "type": "Point",
        "coordinates": [
          21.27,
          141.62
        ]
      }
    }
  ]
}
