{
  "type": "FeatureCollection",
  "name": "electric-devices",
  "features": [
    {
      "type": "Feature",
      "id": "gen-1",
      "properties": {
        "id": "gen-1",
        "assetClass": "gen",
        "assetGroup": "electric_device",
        "x": -26,
        "z": -11,
        "subnetworkId": "island-1",
        "label": "PV + genset",
        "terminals": [
          {
            "name": "OUT",
            "side": "ac"
          }
        ]
      },
      "geometry": {
        "type": "Point",
        "coordinates": [
          -26,
          -11
        ]
      }
    },
    {
      "type": "Feature",
      "id": "station-1",
      "properties": {
        "id": "station-1",
        "assetClass": "station",
        "assetGroup": "electric_device",
        "x": -18,
        "z": -6,
        "subnetworkId": "island-1",
        "label": "Village station / main LV xfmr",
        "terminals": [
          {
            "name": "H1",
            "side": "primary"
          },
          {
            "name": "X1",
            "side": "secondary"
          }
        ]
      },
      "geometry": {
        "type": "Point",
        "coordinates": [
          -18,
          -6
        ]
      }
    },
    {
      "type": "Feature",
      "id": "bess-1",
      "properties": {
        "id": "bess-1",
        "assetClass": "bess",
        "assetGroup": "electric_device",
        "x": -22,
        "z": -9,
        "subnetworkId": "island-1",
        "label": "BESS"
      },
      "geometry": {
        "type": "Point",
        "coordinates": [
          -22,
          -9
        ]
      }
    },
    {
      "type": "Feature",
      "id": "inv-1",
      "properties": {
        "id": "inv-1",
        "assetClass": "inverter",
        "assetGroup": "electric_device",
        "x": -24,
        "z": -10,
        "subnetworkId": "island-1",
        "label": "Hybrid inverter"
      },
      "geometry": {
        "type": "Point",
        "coordinates": [
          -24,
          -10
        ]
      }
    },
    {
      "type": "Feature",
      "id": "xfmr-w",
      "properties": {
        "id": "xfmr-w",
        "assetClass": "xfmr",
        "assetGroup": "electric_device",
        "x": -38,
        "z": 18,
        "subnetworkId": "f-west",
        "label": "Pole xfmr west",
        "terminals": [
          {
            "name": "H1",
            "side": "primary"
          },
          {
            "name": "X1",
            "side": "secondary"
          }
        ]
      },
      "geometry": {
        "type": "Point",
        "coordinates": [
          -38,
          18
        ]
      }
    },
    {
      "type": "Feature",
      "id": "ems-w",
      "properties": {
        "id": "ems-w",
        "assetClass": "ems",
        "assetGroup": "electric_device",
        "x": -37.5,
        "z": 19.5,
        "subnetworkId": "f-west",
        "label": "MeshEMS west",
        "terminals": [
          {
            "name": "N",
            "side": "northbound"
          },
          {
            "name": "S",
            "side": "southbound"
          }
        ]
      },
      "geometry": {
        "type": "Point",
        "coordinates": [
          -37.5,
          19.5
        ]
      }
    },
    {
      "type": "Feature",
      "id": "dtm-w",
      "properties": {
        "id": "dtm-w",
        "assetClass": "dtm",
        "assetGroup": "electric_device",
        "x": -40,
        "z": 16,
        "subnetworkId": "f-west",
        "label": "DTM"
      },
      "geometry": {
        "type": "Point",
        "coordinates": [
          -40,
          16
        ]
      }
    },
    {
      "type": "Feature",
      "id": "brk-w",
      "properties": {
        "id": "brk-w",
        "assetClass": "breaker",
        "assetGroup": "electric_device",
        "x": -39,
        "z": 17,
        "subnetworkId": "f-west",
        "label": "Feeder breaker"
      },
      "geometry": {
        "type": "Point",
        "coordinates": [
          -39,
          17
        ]
      }
    },
    {
      "type": "Feature",
      "id": "m-w1",
      "properties": {
        "id": "m-w1",
        "assetClass": "meter",
        "assetGroup": "electric_device",
        "x": -44,
        "z": 28,
        "subnetworkId": "f-west",
        "phase": "A",
        "label": "meter Leila"
      },
      "geometry": {
        "type": "Point",
        "coordinates": [
          -44,
          28
        ]
      }
    },
    {
      "type": "Feature",
      "id": "m-w2",
      "properties": {
        "id": "m-w2",
        "assetClass": "meter",
        "assetGroup": "electric_device",
        "x": -34,
        "z": 30,
        "subnetworkId": "f-west",
        "phase": "B",
        "label": "meter Musa"
      },
      "geometry": {
        "type": "Point",
        "coordinates": [
          -34,
          30
        ]
      }
    },
    {
      "type": "Feature",
      "id": "m-w3",
      "properties": {
        "id": "m-w3",
        "assetClass": "meter",
        "assetGroup": "electric_device",
        "x": -30,
        "z": 26,
        "subnetworkId": "f-west",
        "phase": "A",
        "label": "meter Hope"
      },
      "geometry": {
        "type": "Point",
        "coordinates": [
          -30,
          26
        ]
      }
    },
    {
      "type": "Feature",
      "id": "xfmr-m",
      "properties": {
        "id": "xfmr-m",
        "assetClass": "xfmr",
        "assetGroup": "electric_device",
        "x": -4,
        "z": 9,
        "subnetworkId": "f-market",
        "label": "Pole xfmr market",
        "terminals": [
          {
            "name": "H1",
            "side": "primary"
          },
          {
            "name": "X1",
            "side": "secondary"
          }
        ]
      },
      "geometry": {
        "type": "Point",
        "coordinates": [
          -4,
          9
        ]
      }
    },
    {
      "type": "Feature",
      "id": "ems-m",
      "properties": {
        "id": "ems-m",
        "assetClass": "ems",
        "assetGroup": "electric_device",
        "x": -3.5,
        "z": 8.5,
        "subnetworkId": "f-market",
        "label": "MeshEMS market"
      },
      "geometry": {
        "type": "Point",
        "coordinates": [
          -3.5,
          8.5
        ]
      }
    },
    {
      "type": "Feature",
      "id": "m-m1",
      "properties": {
        "id": "m-m1",
        "assetClass": "meter",
        "assetGroup": "electric_device",
        "x": 2,
        "z": 14,
        "subnetworkId": "f-market",
        "phase": "A",
        "label": "meter kiosk"
      },
      "geometry": {
        "type": "Point",
        "coordinates": [
          2,
          14
        ]
      }
    },
    {
      "type": "Feature",
      "id": "m-m2",
      "properties": {
        "id": "m-m2",
        "assetClass": "meter",
        "assetGroup": "electric_device",
        "x": 6,
        "z": 8,
        "subnetworkId": "f-market",
        "phase": "B",
        "label": "meter shop"
      },
      "geometry": {
        "type": "Point",
        "coordinates": [
          6,
          8
        ]
      }
    },
    {
      "type": "Feature",
      "id": "fuse-m",
      "properties": {
        "id": "fuse-m",
        "assetClass": "fuse",
        "assetGroup": "electric_device",
        "x": -5,
        "z": 8,
        "subnetworkId": "f-market",
        "label": "lateral fuse"
      },
      "geometry": {
        "type": "Point",
        "coordinates": [
          -5,
          8
        ]
      }
    }
  ]
}
