{
  "type": "FeatureCollection",
  "name": "electric-lines",
  "features": [
    {
      "type": "Feature",
      "id": "ln-gen-station",
      "properties": {
        "id": "ln-gen-station",
        "assetClass": "trunk",
        "assetGroup": "electric_line",
        "subnetworkId": "island-1",
        "label": "gen\u2192station"
      },
      "geometry": {
        "type": "LineString",
        "coordinates": [
          [
            -26,
            -11
          ],
          [
            -22,
            -9
          ],
          [
            -18,
            -6
          ]
        ]
      }
    },
    {
      "type": "Feature",
      "id": "ln-bess",
      "properties": {
        "id": "ln-bess",
        "assetClass": "trunk",
        "assetGroup": "electric_line",
        "subnetworkId": "island-1",
        "label": "bess link"
      },
      "geometry": {
        "type": "LineString",
        "coordinates": [
          [
            -22,
            -9
          ],
          [
            -24,
            -10
          ]
        ]
      }
    },
    {
      "type": "Feature",
      "id": "ln-island-west",
      "properties": {
        "id": "ln-island-west",
        "assetClass": "trunk",
        "assetGroup": "electric_line",
        "subnetworkId": "island-1",
        "label": "trunk\u2192west"
      },
      "geometry": {
        "type": "LineString",
        "coordinates": [
          [
            -18,
            -6
          ],
          [
            -28,
            0
          ],
          [
            -40,
            10
          ]
        ]
      }
    },
    {
      "type": "Feature",
      "id": "ln-island-mkt",
      "properties": {
        "id": "ln-island-mkt",
        "assetClass": "trunk",
        "assetGroup": "electric_line",
        "subnetworkId": "island-1",
        "label": "trunk\u2192market"
      },
      "geometry": {
        "type": "LineString",
        "coordinates": [
          [
            -18,
            -6
          ],
          [
            -14,
            -2
          ],
          [
            -10,
            4
          ]
        ]
      }
    },
    {
      "type": "Feature",
      "id": "ln-w-pri",
      "properties": {
        "id": "ln-w-pri",
        "assetClass": "primary",
        "assetGroup": "electric_line",
        "subnetworkId": "f-west",
        "label": "west primary"
      },
      "geometry": {
        "type": "LineString",
        "coordinates": [
          [
            -40,
            10
          ],
          [
            -42,
            8
          ],
          [
            -40,
            16
          ],
          [
            -39,
            17
          ],
          [
            -38,
            18
          ]
        ]
      }
    },
    {
      "type": "Feature",
      "id": "ln-w-sec",
      "properties": {
        "id": "ln-w-sec",
        "assetClass": "secondary",
        "assetGroup": "electric_line",
        "subnetworkId": "f-west",
        "label": "west secondary"
      },
      "geometry": {
        "type": "LineString",
        "coordinates": [
          [
            -38,
            19.2
          ],
          [
            -37.5,
            19.5
          ],
          [
            -41,
            24
          ]
        ]
      }
    },
    {
      "type": "Feature",
      "id": "ln-w-svc1",
      "properties": {
        "id": "ln-w-svc1",
        "assetClass": "service",
        "assetGroup": "electric_line",
        "subnetworkId": "f-west",
        "label": "service Leila"
      },
      "geometry": {
        "type": "LineString",
        "coordinates": [
          [
            -41,
            24
          ],
          [
            -44,
            28
          ]
        ]
      }
    },
    {
      "type": "Feature",
      "id": "ln-w-svc2",
      "properties": {
        "id": "ln-w-svc2",
        "assetClass": "service",
        "assetGroup": "electric_line",
        "subnetworkId": "f-west",
        "label": "service Musa"
      },
      "geometry": {
        "type": "LineString",
        "coordinates": [
          [
            -41,
            24
          ],
          [
            -34,
            30
          ]
        ]
      }
    },
    {
      "type": "Feature",
      "id": "ln-w-svc3",
      "properties": {
        "id": "ln-w-svc3",
        "assetClass": "service",
        "assetGroup": "electric_line",
        "subnetworkId": "f-west",
        "label": "service Hope"
      },
      "geometry": {
        "type": "LineString",
        "coordinates": [
          [
            -41,
            24
          ],
          [
            -30,
            26
          ]
        ]
      }
    },
    {
      "type": "Feature",
      "id": "ln-m-pri",
      "properties": {
        "id": "ln-m-pri",
        "assetClass": "primary",
        "assetGroup": "electric_line",
        "subnetworkId": "f-market",
        "label": "market primary"
      },
      "geometry": {
        "type": "LineString",
        "coordinates": [
          [
            -10,
            4
          ],
          [
            -8,
            6
          ],
          [
            -5,
            8
          ],
          [
            -4,
            9
          ]
        ]
      }
    },
    {
      "type": "Feature",
      "id": "ln-m-sec",
      "properties": {
        "id": "ln-m-sec",
        "assetClass": "secondary",
        "assetGroup": "electric_line",
        "subnetworkId": "f-market",
        "label": "market secondary"
      },
      "geometry": {
        "type": "LineString",
        "coordinates": [
          [
            -4,
            9.8
          ],
          [
            -3.5,
            8.5
          ],
          [
            -2,
            10
          ]
        ]
      }
    },
    {
      "type": "Feature",
      "id": "ln-m-svc1",
      "properties": {
        "id": "ln-m-svc1",
        "assetClass": "service",
        "assetGroup": "electric_line",
        "subnetworkId": "f-market",
        "label": "service kiosk"
      },
      "geometry": {
        "type": "LineString",
        "coordinates": [
          [
            -2,
            10
          ],
          [
            2,
            14
          ]
        ]
      }
    },
    {
      "type": "Feature",
      "id": "ln-m-svc2",
      "properties": {
        "id": "ln-m-svc2",
        "assetClass": "service",
        "assetGroup": "electric_line",
        "subnetworkId": "f-market",
        "label": "service shop"
      },
      "geometry": {
        "type": "LineString",
        "coordinates": [
          [
            -2,
            10
          ],
          [
            6,
            8
          ]
        ]
      }
    }
  ]
}
